NORAD_CAT_ID,OBJECT_NAME,OBJECT_TYPE,EPOCH,MEAN_MOTION,ECCENTRICITY,INCLINATION,RA_OF_ASC_NODE,ARG_OF_PERICENTER,MEAN_ANOMALY,BSTAR,MEAN_MOTION_DOT,MEAN_MOTION_DDOT,TLE_LINE0,TLE_LINE1,TLE_LINE2,SEMIMAJOR_AXIS,PERIOD,APOGEE,PERIGEE,DECAYED
50175.0,STARLINK-3291,PAYLOAD,2023-04-17 13:56:47,15.08841268,0.0001143,53.216,314.6605,71.4077,288.7039,8.624e-05,1.085e-05,0.0,0 STARLINK-3291,1 50175U 21125V   23107.58110506  .00001085  00000-0  86240-4 0  9996,2 50175  53.2160 314.6605 0001143  71.4077 288.7039 15.08841268 76527,6917.877,95.437,540.532,538.951,0.0
50175.0,STARLINK-3291,PAYLOAD,2023-04-17 20:18:19,15.08841159,0.0001092,53.2155,313.4713,79.779,280.3325,8.1156e-05,1.004e-05,0.0,0 STARLINK-3291,1 50175U 21125V   23107.84606465  .00001004  00000-0  81156-4 0  9991,2 50175  53.2155 313.4713 0001092  79.7790 280.3325 15.08841159 77058,6917.877,95.437,540.497,538.986,0.0
50175.0,STARLINK-3291,PAYLOAD,2023-04-18 01:04:29,15.08845245,0.0001107,53.216,312.5793,79.1727,280.9389,0.00012541,1.709e-05,0.0,0 STARLINK-3291,1 50175U 21125V   23108.04478230  .00001709  00000-0  12541-3 0  9994,2 50175  53.2160 312.5793 0001107  79.1727 280.9389 15.08845245 77082,6917.864,95.437,540.495,538.964,0.0
50175.0,STARLINK-3291,PAYLOAD,2023-04-18 15:22:57,15.08837347,0.0001288,53.2147,309.9025,88.1442,271.9698,-9.4906e-05,-1.798e-05,0.0,0 STARLINK-3291,1 50175U 21125V   23108.64094729 -.00001798  00000-0 -94906-4 0  9993,2 50175  53.2147 309.9025 0001288  88.1442 271.9698 15.08837347 76681,6917.888,95.438,540.645,538.862,0.0
50175.0,STARLINK-3291,PAYLOAD,2023-04-18 16:58:21,15.08838574,0.0001346,53.2155,309.6078,65.8838,294.2295,-4.4344e-05,-9.94e-06,0.0,0 STARLINK-3291,1 50175U 21125V   23108.70718816 -.00000994  00000-0 -44344-4 0  9998,2 50175  53.2155 309.6078 0001346  65.8838 294.2295 15.08838574 77181,6917.885,95.438,540.681,538.819,0.0
50175.0,STARLINK-3291,PAYLOAD,2023-04-19 05:41:25,15.08842941,0.0001195,53.2152,307.2279,77.4735,282.6391,5.1086e-05,5.25e-06,0.0,0 STARLINK-3291,1 50175U 21125V   23109.23710524  .00000525  00000-0  51086-4 0  9994,2 50175  53.2152 307.2279 0001195  77.4735 282.6391 15.08842941 77262,6917.871,95.437,540.563,538.91,0.0
50175.0,STARLINK-3291,PAYLOAD,2023-04-19 19:59:54,15.08845972,0.0001148,53.2155,304.5517,86.7295,273.3829,0.00020899,3.04e-05,0.0,0 STARLINK-3291,1 50175U 21125V   23109.83326408  .00003040  00000-0  20899-3 0  9996,2 50175  53.2155 304.5517 0001148  86.7295 273.3829 15.08845972 77352,6917.862,95.437,540.521,538.933,0.0
50175.0,STARLINK-3291,PAYLOAD,2023-04-20 05:32:13,15.08839393,0.0001392,53.2162,302.7664,77.9474,282.1674,6.4398e-05,7.37e-06,0.0,0 STARLINK-3291,1 50175U 21125V   23110.23070678  .00000737  00000-0  64398-4 0  9990,2 50175  53.2162 302.7664 0001392  77.9474 282.1674 15.08839393 76923,6917.882,95.438,540.71,538.784,0.0
50175.0,STARLINK-3291,PAYLOAD,2023-04-20 13:29:09,15.08832976,0.0001162,53.2183,301.2799,89.4709,270.6416,7.8071e-05,9.55e-06,0.0,0 STARLINK-3291,1 50175U 21125V   23110.56191043  .00000955  00000-0  78071-4 0  9991,2 50175  53.2183 301.2799 0001162  89.4709 270.6416 15.08832976 77469,6917.902,95.438,540.571,538.963,0.0
50175.0,STARLINK-3291,PAYLOAD,2023-04-20 16:39:55,15.08835041,0.0001316,53.2165,300.6859,88.8208,271.2935,-2.6484e-05,-7.09e-06,0.0,0 STARLINK-3291,1 50175U 21125V   23110.69438971 -.00000709  00000-0 -26484-4 0  9999,2 50175  53.2165 300.6859 0001316  88.8208 271.2935 15.08835041 77488,6917.896,95.438,540.671,538.85,0.0
50175.0,STARLINK-3291,PAYLOAD,2023-04-21 05:23:00,15.08834769,0.0001224,53.2156,298.3065,78.1663,281.9466,-6.344e-05,-1.297e-05,0.0,0 STARLINK-3291,1 50175U 21125V   23111.22431052 -.00001297  00000-0 -63440-4 0  9998,2 50175  53.2156 298.3065 0001224  78.1663 281.9466 15.08834769 77567,6917.896,95.438,540.608,538.915,0.0
50175.0,STARLINK-3291,PAYLOAD,2023-04-21 13:19:56,15.08838878,0.000107,53.2148,296.8165,66.0596,294.0508,-7.0112e-05,-1.403e-05,0.0,0 STARLINK-3291,1 50175U 21125V   23111.55550934 -.00001403  00000-0 -70112-4 0  9998,2 50175  53.2148 296.8165 0001070  66.0596 294.0508 15.08838878 77615,6917.884,95.438,540.489,539.009,0.0
50175.0,STARLINK-3291,PAYLOAD,2023-04-21 18:06:05,15.08844422,0.0001071,53.2159,295.9264,74.5743,285.5367,2.713e-05,1.44e-06,0.0,0 STARLINK-3291,1 50175U 21125V   23111.75422663  .00000144  00000-0  27130-4 0  9998,2 50175  53.2159 295.9264 0001071  74.5743 285.5367 15.08844422 77155,6917.867,95.437,540.473,538.991,0.0
50175.0,STARLINK-3291,PAYLOAD,2023-04-22 11:35:19,15.0884039,0.0001126,53.2173,292.6573,79.9694,280.1425,0.00011265,1.505e-05,0.0,0 STARLINK-3291,1 50175U 21125V   23112.48286926  .00001505  00000-0  11265-3 0  9992,2 50175  53.2173 292.6573 0001126  79.9694 280.1425 15.08840390 77755,6917.879,95.438,540.523,538.965,0.0
50175.0,STARLINK-3291,PAYLOAD,2023-04-22 22:43:01,15.08846331,0.0001064,53.2163,290.5749,74.3147,285.7962,0.00018012,2.58e-05,0.0,0 STARLINK-3291,1 50175U 21125V   23112.94654569  .00002580  00000-0  18012-3 0  9996,2 50175  53.2163 290.5749 0001064  74.3147 285.7962 15.08846331 77331,6917.861,95.437,540.462,538.99,0.0
50175.0,STARLINK-3291,PAYLOAD,2023-04-23 11:26:07,15.08830243,0.0001188,53.2159,288.1956,76.0828,284.0297,-1.129e-05,-4.67e-06,0.0,0 STARLINK-3291,1 50175U 21125V   23113.47647725 -.00000467  00000-0 -11290-4 0  9997,2 50175  53.2159 288.1956 0001188  76.0828 284.0297 15.08830243 77418,6917.91,95.438,540.597,538.953,0.0
50175.0,STARLINK-3291,PAYLOAD,2023-04-23 22:33:49,15.08840612,0.0001324,53.215,286.1135,79.9936,280.1206,8.3382e-05,1.039e-05,0.0,0 STARLINK-3291,1 50175U 21125V   23113.94015363  .00001039  00000-0  83382-4 0  9991,2 50175  53.2150 286.1135 0001324  79.9936 280.1206 15.08840612 77485,6917.879,95.438,540.659,538.828,0.0
50175.0,STARLINK-3291,PAYLOAD,2023-04-24 11:16:53,15.08876814,0.0001058,53.2152,283.7334,82.1923,277.9189,0.00086244,0.00013478,0.0,0 STARLINK-3291,1 50175U 21125V   23114.47006052  .00013478  00000-0  86244-3 0  9994,2 50175  53.2152 283.7334 0001058  82.1923 277.9189 15.08876814 77563,6917.768,95.435,540.365,538.901,0.0
50175.0,STARLINK-3291,PAYLOAD,2023-04-25 04:46:07,15.0882688,0.0001293,53.2157,280.4655,83.0031,277.1109,-0.0013851,-0.00022256,0.0,0 STARLINK-3291,1 50175U 21125V   23115.19869811 -.00022256  00000-0 -13851-2 0  9993,2 50175  53.2157 280.4655 0001293  83.0031 277.1109 15.08826880 77673,6917.92,95.438,540.68,538.891,0.0
50175.0,STARLINK-3291,PAYLOAD,2023-04-25 12:43:04,15.08805332,0.0002572,53.2122,278.9777,97.0411,263.0874,-0.0012347,-0.00019867,0.0,0 STARLINK-3291,1 50175U 21125V   23115.52991072 -.00019867  00000-0 -12347-2 0  9998,2 50175  53.2122 278.9777 0002572  97.0411 263.0874 15.08805332 78213,6917.986,95.44,541.631,538.072,0.0
50175.0,STARLINK-3291,PAYLOAD,2023-04-26 12:33:53,15.08827176,0.0001416,53.2132,274.519,65.559,294.555,0.00077358,0.00012041,0.0,0 STARLINK-3291,1 50175U 21125V   23116.52353315  .00012041  00000-0  77358-3 0  9990,2 50175  53.2132 274.5190 0001416  65.5590 294.5550 15.08827176 78365,6917.92,95.438,540.764,538.805,0.0
50175.0,STARLINK-3291,PAYLOAD,2023-04-26 20:30:48,15.08845881,9.85e-05,53.2179,273.0321,116.5853,243.524,0.00077964,0.00012144,0.0,0 STARLINK-3291,1 50175U 21125V   23116.85472513  .00012144  00000-0  77964-3 0  9995,2 50175  53.2179 273.0321 0000985 116.5853 243.5240 15.08845881 78414,6917.862,95.437,540.409,539.046,0.0
50175.0,STARLINK-3291,PAYLOAD,2023-04-27 10:49:16,15.08843717,0.0001342,53.2204,270.3589,114.5639,245.5493,0.00057778,8.92e-05,0.0,0 STARLINK-3291,1 50175U 21125V   23117.45088682  .00008920  00000-0  57778-3 0  9990,2 50175  53.2204 270.3589 0001342 114.5639 245.5493 15.08843717 78505,6917.869,95.437,540.662,538.806,0.0
50175.0,STARLINK-3291,PAYLOAD,2023-04-27 20:21:34,15.08857391,6.27e-05,53.2152,268.5689,117.6597,242.4459,0.00061702,9.55e-05,0.0,0 STARLINK-3291,1 50175U 21125V   23117.84832086  .00009550  00000-0  61702-3 0  9990,2 50175  53.2152 268.5689 0000627 117.6597 242.4459 15.08857391 78072,6917.827,95.436,540.126,539.258,0.0
50175.0,STARLINK-3291,PAYLOAD,2023-04-28 10:40:02,15.08848664,9.19e-05,53.2171,265.8948,114.1663,245.9426,-6.3174e-05,-1.293e-05,0.0,0 STARLINK-3291,1 50175U 21125V   23118.44447637 -.00001293  00000-0 -63174-4 0  9995,2 50175  53.2171 265.8948 0000919 114.1663 245.9426 15.08848664 78166,6917.854,95.437,540.355,539.083,0.0
50175.0,STARLINK-3291,PAYLOAD,2023-04-29 13:41:35,15.08843644,8.1e-05,53.2152,260.837,85.5769,274.5315,-3.7291e-05,-8.81e-06,0.0,0 STARLINK-3291,1 50175U 21125V   23119.57055468 -.00000881  00000-0 -37291-4 0  9990,2 50175  53.2152 260.8370 0000810  85.5769 274.5315 15.08843644 78828,6917.869,95.437,540.295,539.174,0.0
50175.0,STARLINK-3291,PAYLOAD,2023-04-29 18:27:45,15.08848525,8.63e-05,53.2154,259.9451,84.3935,275.7155,9.7207e-05,1.26e-05,0.0,0 STARLINK-3291,1 50175U 21125V   23119.76927275  .00001260  00000-0  97207-4 0  9998,2 50175  53.2154 259.9451 0000863  84.3935 275.7155 15.08848525 78366,6917.854,95.437,540.316,539.122,0.0
50175.0,STARLINK-3291,PAYLOAD,2023-04-30 13:32:23,15.08840207,0.0001015,53.2161,256.379,87.4792,272.6316,8.4899e-05,1.064e-05,0.0,0 STARLINK-3291,1 50175U 21125V   23120.56415761  .00001064  00000-0  84899-4 0  9995,2 50175  53.2161 256.3790 0001015  87.4792 272.6316 15.08840207 78977,6917.88,95.438,540.447,539.043,0.0
50175.0,STARLINK-3291,PAYLOAD,2023-04-30 15:07:46,15.08841922,8.35e-05,53.2158,256.0803,81.244,278.8647,8.7762e-05,1.109e-05,0.0,0 STARLINK-3291,1 50175U 21125V   23120.63039638  .00001109  00000-0  87762-4 0  9990,2 50175  53.2158 256.0803 0000835  81.2440 278.8647 15.08841922 78493,6917.875,95.437,540.317,539.162,0.0
50175.0,STARLINK-3291,PAYLOAD,2023-05-01 13:23:10,15.0883602,0.000104,53.2163,251.918,76.2688,283.8419,5.2015e-05,5.4e-06,0.0,0 STARLINK-3291,1 50175U 21125V   23121.55776312  .00000540  00000-0  52015-4 0  9990,2 50175  53.2163 251.9180 0001040  76.2688 283.8419 15.08836020 79125,6917.893,95.438,540.477,539.038,0.0
